{
    "links": {
        "self": "http://www.neowsapp.com/rest/v1/neo/3601555?api_key=iIulBulltgU6a56xZRHN4H3l9WmuAYTsLGpBGhQ2"
    },
    "id": "3601555",
    "neo_reference_id": "3601555",
    "name": "(2012 FY13)",
    "designation": "2012 FY13",
    "nasa_jpl_url": "http://ssd.jpl.nasa.gov/sbdb.cgi?sstr=3601555",
    "absolute_magnitude_h": 24.5,
    "estimated_diameter": {
        "kilometers": {
            "estimated_diameter_min": 0.0334622374,
            "estimated_diameter_max": 0.0748238376
        },
        "meters": {
            "estimated_diameter_min": 33.4622374455,
            "estimated_diameter_max": 74.8238376074
        },
        "miles": {
            "estimated_diameter_min": 0.0207924639,
            "estimated_diameter_max": 0.0464933628
        },
        "feet": {
            "estimated_diameter_min": 109.7842471007,
            "estimated_diameter_max": 245.4850393757
        }
    },
    "is_potentially_hazardous_asteroid": false,
    "close_approach_data": [
        {
            "close_approach_date": "2012-03-29",
            "close_approach_date_full": "2012-Mar-29 04:32",
            "epoch_date_close_approach": 1332995520000,
            "relative_velocity": {
                "kilometers_per_second": "5.1172794324",
                "kilometers_per_hour": "18422.2059566656",
                "miles_per_hour": "11446.8423623515"
            },
            "miss_distance": {
                "astronomical": "0.1208969999",
                "lunar": "47.0289329611",
                "kilometers": "18085933.674430213",
                "miles": "11238078.0686864194"
            },
            "orbiting_body": "Earth"
        }
    ],
    "orbital_data": {
        "orbit_id": "5",
        "orbit_determination_date": "2017-04-06 08:50:26",
        "first_observation_date": "2012-03-21",
        "last_observation_date": "2012-03-22",
        "data_arc_in_days": 1,
        "observations_used": 12,
        "orbit_uncertainty": "9",
        "minimum_orbit_intersection": ".114667",
        "jupiter_tisserand_invariant": "3.424",
        "epoch_osculation": "2456008.5",
        "eccentricity": ".5114133111421997",
        "semi_major_axis": "2.275116271368905",
        "inclination": ".4181457055558839",
        "ascending_node_longitude": "346.9910016866316",
        "orbital_period": "1253.440784214469",
        "perihelion_distance": "1.111591525794638",
        "perihelion_argument": "194.9958146845343",
        "aphelion_distance": "3.438641016943172",
        "perihelion_time": "2456011.234541722206",
        "mean_anomaly": "359.2146138593926",
        "mean_motion": ".2872094194905362",
        "equinox": "J2000",
        "orbit_class": {
            "orbit_class_type": "AMO",
            "orbit_class_description": "Near-Earth asteroid orbits similar to that of 1221 Amor",
            "orbit_class_range": "1.017 AU < q (perihelion) < 1.3 AU"
        }
    },
    "is_sentry_object": false
}